ORBCOMM FM115           
1 41186U 15081H   25332.40122715  .00000877  00000+0  20412-3 0  9995
2 41186  46.9995 338.3595 0000147 297.1059  62.9813 14.62874441531813
ORBCOMM FM108           
1 41187U 15081J   25332.53265148  .00001029  00000+0  25578-3 0  9996
2 41187  47.0048  50.6507 0002634 329.3812  30.6920 14.58485309530782
ORBCOMM FM117           
1 41188U 15081K   25332.49883018  .00001036  00000+0  25707-3 0  9996
2 41188  47.0021  49.5180 0002826 337.2425  22.8335 14.58528075530825
ORBCOMM FM116           
1 41189U 15081L   25332.47938382  .00000427  00000+0  12715-3 0  9998
2 41189  47.0004 139.3823 0002229 205.2903 154.7874 14.58606709529632
